[{"OBJECT_NAME":"STARLINK-2097","OBJECT_ID":"2021-005AE","EPOCH":"2026-03-09T05:49:42.104352","MEAN_MOTION":15.06382302,"ECCENTRICITY":0.00017017,"INCLINATION":53.0556,"RA_OF_ASC_NODE":63.6258,"ARG_OF_PERICENTER":79.4029,"MEAN_ANOMALY":280.7151,"EPHEMERIS_TYPE":0,"CLASSIFICATION_TYPE":"U","NORAD_CAT_ID":47377,"ELEMENT_SET_NO":999,"REV_AT_EPOCH":28297,"BSTAR":-0.00011661326,"MEAN_MOTION_DOT":-2.017e-5,"MEAN_MOTION_DDOT":0},{"OBJECT_NAME":"CICERO 3","OBJECT_ID":"2017-042AA","EPOCH":"2026-03-09T22:34:09.559488","MEAN_MOTION":15.06999011,"ECCENTRICITY":0.00123402,"INCLINATION":97.4153,"RA_OF_ASC_NODE":238.2133,"ARG_OF_PERICENTER":85.148,"MEAN_ANOMALY":275.1157,"EPHEMERIS_TYPE":0,"CLASSIFICATION_TYPE":"U","NORAD_CAT_ID":42849,"ELEMENT_SET_NO":999,"REV_AT_EPOCH":47226,"BSTAR":0.00039473976,"MEAN_MOTION_DOT":5.861e-5,"MEAN_MOTION_DDOT":0}]
